SPACEBEE-58             
1 47464U 21006BD  22230.17623440  .00031782  00000+0  12474-2 0  9990
2 47464  97.4393 291.2483 0011685  62.5847 297.6578 15.25599625 86821
SPACEBEE-57             
1 47465U 21006BE  22230.13329476  .00007700  00000+0  40852-3 0  9994
2 47465  97.4331 286.8569 0006998  87.8573 272.3460 15.15601716 86550
SPACEBEE-44             
1 47466U 21006BF  22229.17254750  .00016830  00000+0  73702-3 0  9993
2 47466  97.4362 287.7704 0006584  83.5458 276.6527 15.22078363 86524
SPACEBEE-56             
1 47468U 21006BH  22230.14272819  .00021962  00000+0  97267-3 0  9994
2 47468  97.4370 288.6431 0006731  79.5712 280.6282 15.21634202 86661
SPACEBEE-45             
1 47470U 21006BK  22230.09312674  .00022958  00000+0  10056-2 0  9991
2 47470  97.4368 288.7172 0006767  80.4653 279.7348 15.22002693 86664
SPACEBEE-43             
1 47480U 21006BV  22230.15425881  .00024811  00000+0  10793-2 0  9992
2 47480  97.4364 288.7419 0006472  79.5256 280.6709 15.22223533 86677
SPACEBEE-87             
1 47703U 21015E   22230.20622816  .00062881  00000+0  15823-2 0  9991
2 47703  97.4115 308.1979 0007347 201.4302 158.6637 15.39683739 81751
SPACEBEE-86             
1 47704U 21015F   22230.19522901  .00067036  00000+0  16367-2 0  9995
2 47704  97.4102 308.3329 0007711 198.2228 161.8743 15.40582420 81744
SPACEBEE-85             
1 47705U 21015G   22230.18841456  .00065829  00000+0  16005-2 0  9991
2 47705  97.4102 308.3400 0007336 200.1384 159.9574 15.40718077 81765
SPACEBEE-84             
1 47706U 21015H   22230.17364031  .00065852  00000+0  15927-2 0  9998
2 47706  97.4107 308.3584 0007471 199.7842 160.3115 15.40875665 81760
SPACEBEE-83             
1 47707U 21015J   22230.17010064  .00069562  00000+0  16622-2 0  9998
2 47707  97.4090 308.3446 0007032 203.0190 157.0742 15.41229099 81761
SPACEBEE-82             
1 47708U 21015K   22230.20985997  .00074777  00000+0  17335-2 0  9995
2 47708  97.4090 308.5844 0007383 199.2258 160.8711 15.42117376 81781
SPACEBEE-81             
1 47709U 21015L   22230.16869573  .00076683  00000+0  17448-2 0  9995
2 47709  97.4085 308.6528 0007188 199.6891 160.4080 15.42671349 81708
SPACEBEE-78             
1 47710U 21015M   22230.22006143  .00085201  00000+0  18632-2 0  9992
2 47710  97.4097 308.8891 0007247 201.0451 159.0500 15.43819367 81801
SPACEBEE-76             
1 47711U 21015N   22230.16487359  .00098004  00000+0  20282-2 0  9997
2 47711  97.4089 309.1076 0007129 198.8237 161.2749 15.45398388 81814
SPACEBEE-80             
1 47712U 21015P   22230.20222985  .00085433  00000+0  19108-2 0  9992
2 47712  97.4095 308.7605 0007183 199.7835 160.3135 15.43148181 81797
SPACEBEE-77             
1 47714U 21015Q   22230.19739524  .00097288  00000+0  20383-2 0  9992
2 47714  97.4092 309.0756 0007242 198.3771 161.7217 15.45038264 81739
SPACEBEE-79             
1 47715U 21015R   22230.28488014  .00078136  00000+0  17603-2 0  9990
2 47715  97.4128 308.8797 0007081 201.2397 158.8558 15.42963194 81800
SPACEBEE-65             
1 48626U 21006ES  22230.08740410  .00032233  00000+0  12545-2 0  9999
2 48626  97.2035 276.2182 0012406  46.6765 313.5506 15.25867061 86793
SPACEBEE-64             
1 48627U 21006ET  22230.13630638  .00034006  00000+0  13156-2 0  9995
2 48627  97.2040 276.3019 0012297  46.1904 314.0350 15.26056472 86800
SPACEBEE-66             
1 48628U 21006EU  22230.12409258  .00028782  00000+0  11335-2 0  9998
2 48628  97.2034 276.1649 0012649  46.6574 313.5716 15.25493822 86791
SPACEBEE-67             
1 48629U 21006EV  22229.08778886  .00020316  00000+0  80655-3 0  9995
2 48629  97.2035 275.1375 0012844  50.4983 309.7389 15.25292291 86635
SPACEBEE-68             
1 48630U 21006EW  22229.10738862  .00019763  00000+0  78858-3 0  9996
2 48630  97.2030 275.1134 0012903  50.6640 309.5740 15.25127654 86632
SPACEBEE-69             
1 48631U 21006EX  22230.10978152  .00026797  00000+0  10715-2 0  9999
2 48631  97.2035 276.0419 0012924  47.3077 312.9248 15.24996371 86780
SPACEBEE-70             
1 48632U 21006EY  22230.06726980  .00026504  00000+0  10649-2 0  9997
2 48632  97.2036 275.9471 0013081  47.5123 312.7218 15.24834758 86771
SPACEBEE-71             
1 48633U 21006EZ  22230.09557959  .00026500  00000+0  10713-2 0  9997
2 48633  97.2032 275.9070 0013289  47.3425 312.8931 15.24625596 86777
SPACEBEE-72             
1 48634U 21006FA  22230.13630351  .00025047  00000+0  10232-2 0  9992
2 48634  97.2036 275.8597 0013695  46.5171 313.7203 15.24280612 86773
SPACEBEE-73             
1 48635U 21006FB  22229.37125043  .00016176  00000+0  66612-3 0  9991
2 48635  97.2032 275.0749 0013885  50.2612 309.9847 15.24097908 86656
SPACEBEE-74             
1 48636U 21006FC  22230.08092994  .00023028  00000+0  95807-3 0  9992
2 48636  97.2035 275.6379 0014125  47.8003 312.4431 15.23676704 86754
SPACEBEE-75             
1 48637U 21006FD  22230.11864985  .00023123  00000+0  96914-3 0  9990
2 48637  97.2034 275.5854 0014465  47.8705 312.3759 15.23421491 86750
SPACEBEENZ-10           
1 48882U 21059D   22229.35927571  .00010562  00000+0  50804-3 0  9996
2 48882  97.5596 359.1335 0006649 253.1538 106.8967 15.18961985 63193
SPACEBEE-100            
1 48883U 21059E   22229.31753421  .00007472  00000+0  38533-3 0  9995
2 48883  97.5619 358.6359 0007258 249.9093 110.1359 15.16626592 63155
SPACEBEE-101            
1 48884U 21059F   22229.59298263  .00007894  00000+0  40874-3 0  9993
2 48884  97.5621 358.8907 0006933 252.8875 107.1599 15.16464305 63198
SPACEBEE-102            
1 48886U 21059H   22229.31849910  .00007300  00000+0  37732-3 0  9997
2 48886  97.5622 358.6413 0006996 253.7875 106.2589 15.16554880 63153
SPACEBEENZ-9            
1 48887U 21059J   22229.36024317  .00010605  00000+0  51017-3 0  9993
2 48887  97.5594 359.1291 0006604 252.5953 107.4559 15.18954751 63199
SPACEBEE-103            
1 48888U 21059K   22230.34205740  .00010766  00000+0  55086-3 0  9993
2 48888  97.5623 359.7412 0007192 246.0915 113.9565 15.16791541 63310
SPACEBEENZ-7            
1 48889U 21059L   22230.17895221  .00018437  00000+0  87837-3 0  9996
2 48889  97.5610   0.1452 0007290 249.7931 110.2519 15.19156815 63327
SPACEBEE-104            
1 48890U 21059M   22230.10741402  .00011842  00000+0  60472-3 0  9991
2 48890  97.5618 359.4107 0007158 250.9285 109.1173 15.16835565 63273
SPACEBEENZ-8            
1 48891U 21059N   22229.32681327  .00010489  00000+0  50320-3 0  9990
2 48891  97.5613 359.2825 0007238 252.6868 107.3574 15.19050507 63193
SPACEBEE-106            
1 48893U 21059Q   22229.34862046  .00006589  00000+0  33987-3 0  9999
2 48893  97.5643 358.8608 0007543 253.0978 106.9428 15.16661866 63161
SPACEBEE-107            
1 48894U 21059R   22229.31282386  .00008373  00000+0  42556-3 0  9995
2 48894  97.5644 358.9118 0007516 252.3041 107.7372 15.17099178 63162
SPACEBEE-108            
1 48895U 21059S   22229.34538432  .00006422  00000+0  33146-3 0  9993
2 48895  97.5637 358.8461 0007624 252.5978 107.4422 15.16649023 63168
SPACEBEE-105            
1 48896U 21059T   22229.33355834  .00007623  00000+0  39228-3 0  9997
2 48896  97.5620 358.5959 0007316 243.1809 116.8676 15.16693677 63155
SPACEBEE-109            
1 48897U 21059U   22229.32398936  .00007558  00000+0  38602-3 0  9999
2 48897  97.5638 358.8682 0007880 251.0049 109.0330 15.16958220 63161
SPACEBEE-110            
1 48899U 21059W   22230.31876266  .00012268  00000+0  61837-3 0  9999
2 48899  97.5643   0.0317 0008068 245.2174 114.8220 15.17277731 63325
SPACEBEE-111            
1 48904U 21059AB  22229.32443651  .00007283  00000+0  36499-3 0  9990
2 48904  97.5650 359.2389 0008870 249.4636 110.5645 15.17630147 63180
SPACEBEE-92             
1 48932U 21059BF  22230.30555328  .00041242  00000+0  15444-2 0  9995
2 48932  97.5500   2.2803 0012965 241.2731 118.7205 15.27088493 63507
SPACEBEE-89             
1 48933U 21059BG  22230.29119691  .00044193  00000+0  16053-2 0  9998
2 48933  97.5495   2.4325 0012845 239.9890 120.0075 15.28077459 63512
SPACEBEE-96             
1 48934U 21059BH  22230.30158825  .00038601  00000+0  14766-2 0  9999
2 48934  97.5506   2.1430 0013111 240.6137 119.3793 15.26396550 63499
SPACEBEE-88             
1 48935U 21059BJ  22230.14551867  .00042662  00000+0  15396-2 0  9997
2 48935  97.5481   2.2984 0012825 240.1507 119.8458 15.28301193 63498
SPACEBEE-99             
1 48936U 21059BK  22230.28787531  .00036050  00000+0  14072-2 0  9996
2 48936  97.5511   2.0259 0013118 241.2485 118.7435 15.25738497 63489
SPACEBEE-94             
1 48937U 21059BL  22229.34689979  .00023265  00000+0  88472-3 0  9999
2 48937  97.5496   1.2405 0012967 244.0217 115.9686 15.26704083 63359
SPACEBEE-93             
1 48939U 21059BN  22230.32486813  .00045051  00000+0  16529-2 0  9993
2 48939  97.5491   2.3896 0013059 241.1765 118.8164 15.27740773 63519
SPACEBEE-91             
1 48940U 21059BP  22230.31245058  .00043913  00000+0  16085-2 0  9990
2 48940  97.5495   2.4092 0012955 240.8759 119.1184 15.27802731 63516
SPACEBEE-95             
1 48945U 21059BU  22230.31130282  .00040694  00000+0  15273-2 0  9998
2 48945  97.5505   2.2855 0013045 240.9999 118.9933 15.27016370 63500
SPACEBEE-97             
1 48946U 21059BV  22230.32201531  .00038011  00000+0  14665-2 0  9990
2 48946  97.5509   2.1207 0013218 241.3378 118.6531 15.26114764 63497
SPACEBEE-90             
1 48947U 21059BW  22230.17147629  .00044467  00000+0  16230-2 0  9993
2 48947  97.5493   2.2864 0012904 240.9161 119.0786 15.27918003 63492
SPACEBEE-98             
1 48949U 21059BY  22229.33619238  .00021027  00000+0  81485-3 0  9993
2 48949  97.5520   1.1601 0013189 245.0297 114.9571 15.26096068 63341
SPACEBEE-121            
1 52009U 22026B   22229.47386849  .00008870  00000+0  45763-3 0  9994
2 52009  97.5035 228.6265 0028631  65.6746 294.7472 15.16211963 23434
SPACEBEE-114            
1 52010U 22026C   22229.46987420  .00009446  00000+0  48382-3 0  9997
2 52010  97.5061 228.6689 0027790  67.2222 293.1943 15.16467162 23448
